{
    "links": {
        "self": "http://www.neowsapp.com/rest/v1/neo/3724986?api_key=iIulBulltgU6a56xZRHN4H3l9WmuAYTsLGpBGhQ2"
    },
    "id": "3724986",
    "neo_reference_id": "3724986",
    "name": "(2015 PK)",
    "designation": "2015 PK",
    "nasa_jpl_url": "http://ssd.jpl.nasa.gov/sbdb.cgi?sstr=3724986",
    "absolute_magnitude_h": 28.1,
    "estimated_diameter": {
        "kilometers": {
            "estimated_diameter_min": 0.0063760979,
            "estimated_diameter_max": 0.0142573883
        },
        "meters": {
            "estimated_diameter_min": 6.3760978988,
            "estimated_diameter_max": 14.2573883328
        },
        "miles": {
            "estimated_diameter_min": 0.0039619223,
            "estimated_diameter_max": 0.0088591276
        },
        "feet": {
            "estimated_diameter_min": 20.9189570301,
            "estimated_diameter_max": 46.7762099378
        }
    },
    "is_potentially_hazardous_asteroid": false,
    "close_approach_data": [
        {
            "close_approach_date": "2015-06-10",
            "close_approach_date_full": "2015-Jun-10 11:55",
            "epoch_date_close_approach": 1433937300000,
            "relative_velocity": {
                "kilometers_per_second": "12.4259216135",
                "kilometers_per_hour": "44733.31780847",
                "miles_per_hour": "27795.5440571574"
            },
            "miss_distance": {
                "astronomical": "0.134349502",
                "lunar": "52.261956278",
                "kilometers": "20098399.33476074",
                "miles": "12488566.244108612"
            },
            "orbiting_body": "Venus"
        },
        {
            "close_approach_date": "2015-08-06",
            "close_approach_date_full": "2015-Aug-06 03:09",
            "epoch_date_close_approach": 1438830540000,
            "relative_velocity": {
                "kilometers_per_second": "16.3132688854",
                "kilometers_per_hour": "58727.7679874533",
                "miles_per_hour": "36491.1511697595"
            },
            "miss_distance": {
                "astronomical": "0.0005314383",
                "lunar": "0.2067294987",
                "kilometers": "79502.037716421",
                "miles": "49400.2755157698"
            },
            "orbiting_body": "Earth"
        },
        {
            "close_approach_date": "2015-08-06",
            "close_approach_date_full": "2015-Aug-06 05:32",
            "epoch_date_close_approach": 1438839120000,
            "relative_velocity": {
                "kilometers_per_second": "17.0518350727",
                "kilometers_per_hour": "61386.6062616923",
                "miles_per_hour": "38143.2498741054"
            },
            "miss_distance": {
                "astronomical": "0.0027152948",
                "lunar": "1.0562496772",
                "kilometers": "406202.318502076",
                "miles": "252402.4166616088"
            },
            "orbiting_body": "Moon"
        }
    ],
    "orbital_data": {
        "orbit_id": "5",
        "orbit_determination_date": "2019-07-10 05:35:25",
        "first_observation_date": "2015-08-07",
        "last_observation_date": "2015-08-08",
        "data_arc_in_days": 1,
        "observations_used": 28,
        "orbit_uncertainty": "7",
        "minimum_orbit_intersection": ".000142496",
        "jupiter_tisserand_invariant": "3.513",
        "epoch_osculation": "2459000.5",
        "eccentricity": ".6156731956153835",
        "semi_major_axis": "2.055498663789111",
        "inclination": "7.657853694084919",
        "ascending_node_longitude": "133.2023404081818",
        "orbital_period": "1076.401328409836",
        "perihelion_distance": ".7899832328709183",
        "perihelion_argument": "114.78691780",
        "aphelion_distance": "3.321014094707304",
        "perihelion_time": "2459349.719819097514",
        "mean_anomaly": "243.2042180207734",
        "mean_motion": ".3344477477855095",
        "equinox": "J2000",
        "orbit_class": {
            "orbit_class_type": "APO",
            "orbit_class_description": "Near-Earth asteroid orbits which cross the Earth’s orbit similar to that of 1862 Apollo",
            "orbit_class_range": "a (semi-major axis) > 1.0 AU; q (perihelion) < 1.017 AU"
        }
    },
    "is_sentry_object": false
}